IRIDIUM 144             
1 43249U 18030A   25361.73957359  .00000089  00000+0  24826-4 0  9991
2 43249  86.3965   2.0728 0002341  90.3492 269.7972 14.34218786405563
IRIDIUM 149             
1 43250U 18030B   25361.46684191  .00000134  00000+0  40677-4 0  9997
2 43250  86.3966   2.1562 0002208  90.8101 269.3348 14.34219090405547
IRIDIUM 157             
1 43251U 18030C   25361.55563816  .00000286  00000+0  95206-4 0  9994
2 43251  86.3963   2.1686 0002062  85.5711 274.5721 14.34216698405531
IRIDIUM 140             
1 43252U 18030D   25361.71420397  .00000165  00000+0  51842-4 0  9993
2 43252  86.3964   2.1147 0002230  89.3804 270.7647 14.34217923405613
IRIDIUM 145             
1 43253U 18030E   25361.49221450  .00000315  00000+0  10560-3 0  9996
2 43253  86.3973   2.1808 0002793  92.9031 267.2485 14.34214254405518
IRIDIUM 146             
1 43254U 18030F   25361.75227266  .00000342  00000+0  11490-3 0  9990
2 43254  86.3965   2.0843 0002385  88.5577 271.5892 14.34219487405569
IRIDIUM 148             
1 43255U 18030G   25361.72054728  .00000345  00000+0  11608-3 0  9993
2 43255  86.3971   2.1387 0002280  89.0667 271.0790 14.34215798405597
IRIDIUM 142             
1 43256U 18030H   25361.47952794  .00000110  00000+0  32380-4 0  9997
2 43256  86.3963   2.1342 0002609  87.7588 272.3906 14.34218974405527
